[{"OBJECT_NAME":"STAR ONE C3","OBJECT_ID":"2012-062A","EPOCH":"2026-03-05T06:47:44.219616","MEAN_MOTION":1.00272107,"ECCENTRICITY":0.00022902,"INCLINATION":0.0374,"RA_OF_ASC_NODE":281.066,"ARG_OF_PERICENTER":78.4031,"MEAN_ANOMALY":190.4801,"EPHEMERIS_TYPE":0,"CLASSIFICATION_TYPE":"U","NORAD_CAT_ID":38991,"ELEMENT_SET_NO":999,"REV_AT_EPOCH":4872,"BSTAR":0,"MEAN_MOTION_DOT":-2.57e-6,"MEAN_MOTION_DDOT":0},{"OBJECT_NAME":"EUTELSAT 21B","OBJECT_ID":"2012-062B","EPOCH":"2026-03-05T05:32:28.936608","MEAN_MOTION":1.00271957,"ECCENTRICITY":0.00028475,"INCLINATION":0.0682,"RA_OF_ASC_NODE":359.5869,"ARG_OF_PERICENTER":341.4006,"MEAN_ANOMALY":286.6779,"EPHEMERIS_TYPE":0,"CLASSIFICATION_TYPE":"U","NORAD_CAT_ID":38992,"ELEMENT_SET_NO":999,"REV_AT_EPOCH":4878,"BSTAR":0,"MEAN_MOTION_DOT":1.21e-6,"MEAN_MOTION_DDOT":0},{"OBJECT_NAME":"ECHOSTAR 16","OBJECT_ID":"2012-065A","EPOCH":"2026-03-05T02:44:38.848992","MEAN_MOTION":1.00272792,"ECCENTRICITY":0.00020284,"INCLINATION":0.0205,"RA_OF_ASC_NODE":134.2383,"ARG_OF_PERICENTER":214.1112,"MEAN_ANOMALY":154.1524,"EPHEMERIS_TYPE":0,"CLASSIFICATION_TYPE":"U","NORAD_CAT_ID":39008,"ELEMENT_SET_NO":999,"REV_AT_EPOCH":4860,"BSTAR":0,"MEAN_MOTION_DOT":-2.91e-6,"MEAN_MOTION_DDOT":0},{"OBJECT_NAME":"ZHONGXING-12","OBJECT_ID":"2012-067A","EPOCH":"2026-03-05T04:13:38.615232","MEAN_MOTION":1.00270667,"ECCENTRICITY":0.00033924,"INCLINATION":0.0094,"RA_OF_ASC_NODE":156.0321,"ARG_OF_PERICENTER":180.6506,"MEAN_ANOMALY":337.1205,"EPHEMERIS_TYPE":0,"CLASSIFICATION_TYPE":"U","NORAD_CAT_ID":39017,"ELEMENT_SET_NO":999,"REV_AT_EPOCH":4846,"BSTAR":0,"MEAN_MOTION_DOT":-2.15e-6,"MEAN_MOTION_DDOT":0},{"OBJECT_NAME":"EUTELSAT 70B","OBJECT_ID":"2012-069A","EPOCH":"2026-03-05T05:39:38.799072","MEAN_MOTION":1.00273602,"ECCENTRICITY":0.00020437,"INCLINATION":0.0653,"RA_OF_ASC_NODE":340.4251,"ARG_OF_PERICENTER":338.5861,"MEAN_ANOMALY":359.3813,"EPHEMERIS_TYPE":0,"CLASSIFICATION_TYPE":"U","NORAD_CAT_ID":39020,"ELEMENT_SET_NO":999,"REV_AT_EPOCH":4846,"BSTAR":0,"MEAN_MOTION_DOT":-5.2e-7,"MEAN_MOTION_DDOT":0},{"OBJECT_NAME":"YAMAL 402","OBJECT_ID":"2012-070A","EPOCH":"2026-03-05T05:42:05.515776","MEAN_MOTION":1.00273157,"ECCENTRICITY":0.00040771,"INCLINATION":0.9975,"RA_OF_ASC_NODE":85.5977,"ARG_OF_PERICENTER":258.6817,"MEAN_ANOMALY":319.1107,"EPHEMERIS_TYPE":0,"CLASSIFICATION_TYPE":"U","NORAD_CAT_ID":39022,"ELEMENT_SET_NO":999,"REV_AT_EPOCH":4835,"BSTAR":0,"MEAN_MOTION_DOT":7.8e-7,"MEAN_MOTION_DDOT":0},{"OBJECT_NAME":"SKYNET 5D","OBJECT_ID":"2012-075A","EPOCH":"2026-03-05T05:17:38.772960","MEAN_MOTION":1.0027504,"ECCENTRICITY":0.00036844,"INCLINATION":0.0703,"RA_OF_ASC_NODE":341.2992,"ARG_OF_PERICENTER":2.0118,"MEAN_ANOMALY":311.7786,"EPHEMERIS_TYPE":0,"CLASSIFICATION_TYPE":"U","NORAD_CAT_ID":39034,"ELEMENT_SET_NO":999,"REV_AT_EPOCH":4811,"BSTAR":0,"MEAN_MOTION_DOT":9.1e-7,"MEAN_MOTION_DDOT":0},{"OBJECT_NAME":"MEXSAT 3","OBJECT_ID":"2012-075B","EPOCH":"2026-03-05T06:36:22.808736","MEAN_MOTION":1.00278341,"ECCENTRICITY":0.00020739,"INCLINATION":0.0344,"RA_OF_ASC_NODE":242.9858,"ARG_OF_PERICENTER":84.4816,"MEAN_ANOMALY":179.833,"EPHEMERIS_TYPE":0,"CLASSIFICATION_TYPE":"U","NORAD_CAT_ID":39035,"ELEMENT_SET_NO":999,"REV_AT_EPOCH":601,"BSTAR":0,"MEAN_MOTION_DOT":-3.5e-7,"MEAN_MOTION_DDOT":0},{"OBJECT_NAME":"TDRS 11","OBJECT_ID":"2013-004A","EPOCH":"2026-03-05T08:07:07.730688","MEAN_MOTION":1.00276897,"ECCENTRICITY":0.00039782,"INCLINATION":3.3687,"RA_OF_ASC_NODE":29.3698,"ARG_OF_PERICENTER":350.9424,"MEAN_ANOMALY":90.211,"EPHEMERIS_TYPE":0,"CLASSIFICATION_TYPE":"U","NORAD_CAT_ID":39070,"ELEMENT_SET_NO":999,"REV_AT_EPOCH":4565,"BSTAR":0,"MEAN_MOTION_DOT":7.4e-7,"MEAN_MOTION_DDOT":0},{"OBJECT_NAME":"AMAZONAS 3","OBJECT_ID":"2013-006A","EPOCH":"2026-03-05T06:51:36.349632","MEAN_MOTION":1.0027108,"ECCENTRICITY":0.00024843,"INCLINATION":0.0539,"RA_OF_ASC_NODE":244.0582,"ARG_OF_PERICENTER":82.9289,"MEAN_ANOMALY":237.8886,"EPHEMERIS_TYPE":0,"CLASSIFICATION_TYPE":"U","NORAD_CAT_ID":39078,"ELEMENT_SET_NO":999,"REV_AT_EPOCH":4387,"BSTAR":0,"MEAN_MOTION_DOT":-2.91e-6,"MEAN_MOTION_DDOT":0},{"OBJECT_NAME":"AZERSPACE 1","OBJECT_ID":"2013-006B","EPOCH":"2026-03-05T04:21:38.547360","MEAN_MOTION":1.00275538,"ECCENTRICITY":9.893e-5,"INCLINATION":0.0339,"RA_OF_ASC_NODE":270.0952,"ARG_OF_PERICENTER":97.1883,"MEAN_ANOMALY":267.0333,"EPHEMERIS_TYPE":0,"CLASSIFICATION_TYPE":"U","NORAD_CAT_ID":39079,"ELEMENT_SET_NO":999,"REV_AT_EPOCH":4776,"BSTAR":0,"MEAN_MOTION_DOT":1.24e-6,"MEAN_MOTION_DDOT":0},{"OBJECT_NAME":"SBIRS GEO-2 (USA 241)","OBJECT_ID":"2013-011A","EPOCH":"2026-03-05T04:30:38.664864","MEAN_MOTION":1.00270942,"ECCENTRICITY":0.00022438,"INCLINATION":4.2633,"RA_OF_ASC_NODE":52.3825,"ARG_OF_PERICENTER":293.6308,"MEAN_ANOMALY":194.7688,"EPHEMERIS_TYPE":0,"CLASSIFICATION_TYPE":"U","NORAD_CAT_ID":39120,"ELEMENT_SET_NO":999,"REV_AT_EPOCH":4749,"BSTAR":0,"MEAN_MOTION_DOT":-2.93e-6,"MEAN_MOTION_DDOT":0},{"OBJECT_NAME":"EUTELSAT 117 WEST A","OBJECT_ID":"2013-012A","EPOCH":"2026-03-05T06:35:45.369024","MEAN_MOTION":1.00271055,"ECCENTRICITY":0.00029423,"INCLINATION":0.0519,"RA_OF_ASC_NODE":294.2065,"ARG_OF_PERICENTER":53.1732,"MEAN_ANOMALY":157.7549,"EPHEMERIS_TYPE":0,"CLASSIFICATION_TYPE":"U","NORAD_CAT_ID":39122,"ELEMENT_SET_NO":999,"REV_AT_EPOCH":4739,"BSTAR":0,"MEAN_MOTION_DOT":-2.1e-7,"MEAN_MOTION_DDOT":0},{"OBJECT_NAME":"ANIK G1","OBJECT_ID":"2013-014A","EPOCH":"2026-03-05T06:38:30.106176","MEAN_MOTION":1.00271853,"ECCENTRICITY":0.00029901,"INCLINATION":0.0531,"RA_OF_ASC_NODE":269.9727,"ARG_OF_PERICENTER":54.0545,"MEAN_ANOMALY":191.2935,"EPHEMERIS_TYPE":0,"CLASSIFICATION_TYPE":"U","NORAD_CAT_ID":39127,"ELEMENT_SET_NO":999,"REV_AT_EPOCH":4721,"BSTAR":0,"MEAN_MOTION_DOT":-8.2e-7,"MEAN_MOTION_DDOT":0},{"OBJECT_NAME":"ZHONGXING-11","OBJECT_ID":"2013-020A","EPOCH":"2026-03-05T00:46:18.876288","MEAN_MOTION":1.00272054,"ECCENTRICITY":6.95e-5,"INCLINATION":0.0442,"RA_OF_ASC_NODE":308.0509,"ARG_OF_PERICENTER":37.634,"MEAN_ANOMALY":286.5973,"EPHEMERIS_TYPE":0,"CLASSIFICATION_TYPE":"U","NORAD_CAT_ID":39157,"ELEMENT_SET_NO":999,"REV_AT_EPOCH":4685,"BSTAR":0,"MEAN_MOTION_DOT":-3.0e-6,"MEAN_MOTION_DDOT":0},{"OBJECT_NAME":"EUTELSAT 7B","OBJECT_ID":"2013-022A","EPOCH":"2026-03-05T05:28:21.830880","MEAN_MOTION":1.00272663,"ECCENTRICITY":0.00063192,"INCLINATION":0.0688,"RA_OF_ASC_NODE":353.0244,"ARG_OF_PERICENTER":1.5188,"MEAN_ANOMALY":257.488,"EPHEMERIS_TYPE":0,"CLASSIFICATION_TYPE":"U","NORAD_CAT_ID":39163,"ELEMENT_SET_NO":999,"REV_AT_EPOCH":4690,"BSTAR":0,"MEAN_MOTION_DOT":3.9e-7,"MEAN_MOTION_DDOT":0},{"OBJECT_NAME":"WGS F5 (USA 243)","OBJECT_ID":"2013-024A","EPOCH":"2026-03-04T08:14:38.476896","MEAN_MOTION":1.00274869,"ECCENTRICITY":3.241e-5,"INCLINATION":0.0099,"RA_OF_ASC_NODE":133.255,"ARG_OF_PERICENTER":188.6764,"MEAN_ANOMALY":271.326,"EPHEMERIS_TYPE":0,"CLASSIFICATION_TYPE":"U","NORAD_CAT_ID":39168,"ELEMENT_SET_NO":999,"REV_AT_EPOCH":4612,"BSTAR":0,"MEAN_MOTION_DOT":-2.96e-6,"MEAN_MOTION_DDOT":0}]
