STAR ONE C3             
1 38991U 12062A   26064.28315069 -.00000257  00000+0  00000+0 0  9996
2 38991   0.0374 281.0660 0002290  78.4031 190.4801  1.00272107 48729
EUTELSAT 21B            
1 38992U 12062B   26064.23089047  .00000121  00000+0  00000+0 0  9995
2 38992   0.0682 359.5869 0002847 341.4006 286.6779  1.00271957 48787
ECHOSTAR 16             
1 39008U 12065A   26064.11433853 -.00000291  00000+0  00000+0 0  9991
2 39008   0.0205 134.2383 0002028 214.1112 154.1524  1.00272792 48607
ZHONGXING-12            
1 39017U 12067A   26064.17614138 -.00000215  00000+0  00000+0 0  9992
2 39017   0.0094 156.0321 0003392 180.6506 337.1205  1.00270667 48468
EUTELSAT 70B            
1 39020U 12069A   26064.23586573 -.00000052  00000+0  00000+0 0  9995
2 39020   0.0653 340.4251 0002043 338.5861 359.3813  1.00273602 48467
YAMAL 402               
1 39022U 12070A   26064.23756384  .00000078  00000+0  00000+0 0  9995
2 39022   0.9975  85.5977 0004077 258.6817 319.1107  1.00273157 48352
SKYNET 5D               
1 39034U 12075A   26064.22058765  .00000091  00000+0  00000+0 0  9995
2 39034   0.0703 341.2992 0003684   2.0118 311.7786  1.00275040 48110
MEXSAT 3                
1 39035U 12075B   26064.27526399 -.00000035  00000+0  00000+0 0  9993
2 39035   0.0344 242.9858 0002073  84.4816 179.8330  1.00278341  6018
TDRS 11                 
1 39070U 13004A   26064.33828392  .00000074  00000+0  00000+0 0  9992
2 39070   3.3687  29.3698 0003978 350.9424  90.2110  1.00276897 45652
AMAZONAS 3              
1 39078U 13006A   26064.28583738 -.00000291  00000+0  00000+0 0  9990
2 39078   0.0539 244.0582 0002484  82.9289 237.8886  1.00271080 43870
AZERSPACE 1             
1 39079U 13006B   26064.18169615  .00000124  00000+0  00000+0 0  9998
2 39079   0.0339 270.0952 0000989  97.1883 267.0333  1.00275538 47761
SBIRS GEO-2 (USA 241)   
1 39120U 13011A   26064.18794751 -.00000293  00000+0  00000+0 0  9994
2 39120   4.2633  52.3825 0002243 293.6308 194.7688  1.00270942 47494
EUTELSAT 117 WEST A     
1 39122U 13012A   26064.27483066 -.00000021  00000+0  00000+0 0  9990
2 39122   0.0519 294.2065 0002942  53.1732 157.7549  1.00271055 47392
ANIK G1                 
1 39127U 13014A   26064.27673734 -.00000082  00000+0  00000+0 0  9997
2 39127   0.0531 269.9727 0002990  54.0545 191.2935  1.00271853 47219
ZHONGXING-11            
1 39157U 13020A   26064.03216292 -.00000300  00000+0  00000+0 0  9996
2 39157   0.0442 308.0509 0000695  37.6340 286.5973  1.00272054 46859
EUTELSAT 7B             
1 39163U 13022A   26064.22803045  .00000039  00000+0  00000+0 0  9992
2 39163   0.0688 353.0244 0006319   1.5188 257.4880  1.00272663 46909
WGS F5 (USA 243)        
1 39168U 13024A   26063.34350089 -.00000296  00000+0  00000+0 0  9992
2 39168   0.0099 133.2550 0000324 188.6764 271.3260  1.00274869 46126
